ONEWEB-0228             
1 48780U 21045P   24092.64095854  .00000030  00000+0  46440-4 0  9991
2 48780  87.8991  59.6822 0001799  79.8565 280.2768 13.15548750139419
